OBJECT_NAME,OBJECT_ID,EPOCH,MEAN_MOTION,ECCENTRICITY,INCLINATION,RA_OF_ASC_NODE,ARG_OF_PERICENTER,MEAN_ANOMALY,EPHEMERIS_TYPE,CLASSIFICATION_TYPE,NORAD_CAT_ID,ELEMENT_SET_NO,REV_AT_EPOCH,BSTAR,MEAN_MOTION_DOT,MEAN_MOTION_DDOT
GSAT0225 (GALILEO 29),2024-079A,2026-06-24T18:13:09.659712,1.70474128,.00017428,55.1240,100.8683,297.9493,254.8080,0,U,59598,999,1344,0,-.38E-6,0
GSAT0227 (GALILEO 30),2024-079C,2026-06-23T10:55:38.202528,1.70473918,.00024194,55.1185,100.9033,58.0764,301.9236,0,U,59600,999,1347,0,-.33E-6,0
GSAT0232 (GALILEO 32),2024-167A,2026-06-25T15:14:38.029632,1.70474486,.0006264,55.1829,221.0818,229.7720,243.6564,0,U,61182,999,1102,0,.6E-6,0
GSAT0226 (GALILEO 31),2024-167B,2026-06-24T03:55:38.057952,1.70474440,.0002945,55.1820,221.1292,231.0291,150.6225,0,U,61183,999,1097,0,.5E-6,0
BEIDOU-3 M25 (C47),2024-168B,2026-06-25T12:38:12.535872,1.86230340,.0003119,54.4653,301.9524,299.1636,69.9171,0,U,61186,999,1194,0,-.106E-5,0
BEIDOU-3 M27 (C49),2024-168C,2026-06-23T16:47:28.840704,1.86230327,.00014704,54.4622,301.9985,49.4418,309.8302,0,U,61187,999,937,0,-.109E-5,0
GPS BIII-7  (PRN 01),2024-242A,2026-06-25T01:40:29.642592,2.00571971,.00176729,54.8458,333.8613,4.5649,176.3126,0,U,62339,999,1141,0,-.106E-5,0
QZS-6 (QZSS/PRN 200),2025-023A,2026-06-25T14:29:38.517792,1.00273214,.0001986,0.0573,280.3752,187.0073,114.2719,0,U,62876,999,503,0,-.223E-5,0
COSMOS 2584 (704K),2025-042A,2026-06-25T02:49:21.756288,2.13103928,.0006504,65.0891,72.5324,227.6492,132.3305,0,U,63130,999,1021,0,-.68E-6,0
GPS BIII-8  (PRN 21),2025-116A,2026-06-25T19:29:21.228864,2.00575516,.000828,55.2403,30.7831,342.5010,197.3025,0,U,64202,999,804,0,-.89E-6,0
COSMOS 2596 (708K),2025-206B,2026-06-24T23:11:42.537984,2.13100978,.00110095,64.6296,314.7142,310.6805,49.5796,0,U,65590,999,608,0,-.86E-6,0
GSAT0233 (GALILEO 33),2025-302A,2026-06-24T02:17:01.853376,1.70474189,.0000823,54.3398,101.9339,209.8671,226.2605,0,U,67160,999,324,0,-.35E-6,0
GSAT0234 (GALILEO 34),2025-302C,2026-06-20T10:43:51.885120,1.70474042,.00028893,54.3393,102.0369,311.1148,226.2302,0,U,67162,999,323,0,-.15E-6,0
GPS BIII-9  (PRN 20),2026-017A,2026-06-25T04:10:57.931968,2.00571022,.0021607,55.0933,88.4346,258.6594,101.0992,0,U,67588,999,43177,0,-.68E-6,0
GPS BIII-10 (PRN 13),2026-087A,2026-06-22T15:38:01.863744,2.00570839,.00206819,54.9627,207.5713,106.6591,76.9843,0,U,68791,999,94,0,.58E-6,0
